[{"OBJECT_NAME":"STARLINK-2507","OBJECT_ID":"2021-036AS","EPOCH":"2026-03-09T11:20:03.739200","MEAN_MOTION":15.06417231,"ECCENTRICITY":0.00013989,"INCLINATION":53.0537,"RA_OF_ASC_NODE":92.5941,"ARG_OF_PERICENTER":88.3681,"MEAN_ANOMALY":271.7468,"EPHEMERIS_TYPE":0,"CLASSIFICATION_TYPE":"U","NORAD_CAT_ID":48316,"ELEMENT_SET_NO":999,"REV_AT_EPOCH":26813,"BSTAR":0.00016715312,"MEAN_MOTION_DOT":2.21e-5,"MEAN_MOTION_DDOT":0},{"OBJECT_NAME":"PEGASUS DEB","OBJECT_ID":"1994-029LA","EPOCH":"2026-03-09T18:29:08.733408","MEAN_MOTION":14.76409113,"ECCENTRICITY":0.01360091,"INCLINATION":82.0422,"RA_OF_ASC_NODE":179.0624,"ARG_OF_PERICENTER":235.64,"MEAN_ANOMALY":242.608,"EPHEMERIS_TYPE":0,"CLASSIFICATION_TYPE":"U","NORAD_CAT_ID":24227,"ELEMENT_SET_NO":999,"REV_AT_EPOCH":58708,"BSTAR":0.0004416374,"MEAN_MOTION_DOT":3.597e-5,"MEAN_MOTION_DDOT":0}]
